NORAD_CAT_ID,OBJECT_NAME,OBJECT_TYPE,EPOCH,MEAN_MOTION,ECCENTRICITY,INCLINATION,RA_OF_ASC_NODE,ARG_OF_PERICENTER,MEAN_ANOMALY,BSTAR,MEAN_MOTION_DOT,MEAN_MOTION_DDOT,TLE_LINE0,TLE_LINE1,TLE_LINE2,SEMIMAJOR_AXIS,PERIOD,APOGEE,PERIGEE,DECAYED
52559.0,STARLINK-3953,PAYLOAD,2023-08-25 12:01:17,15.08848681,0.0001057,53.2179,321.6175,77.0031,283.1079,0.00010334,1.358e-05,0.0,0 STARLINK-3953,1 52559U 22051AC  23237.50090014  .00001358  00000-0  10334-3 0  9993,2 52559  53.2179 321.6175 0001057  77.0031 283.1079 15.08848681 71604,6917.854,95.437,540.45,538.988,0.0
52559.0,STARLINK-3953,PAYLOAD,2023-08-26 10:16:42,15.08836136,0.0001322,53.2181,317.4543,99.3512,260.763,2.7956e-05,1.57e-06,0.0,0 STARLINK-3953,1 52559U 22051AC  23238.42826837  .00000157  00000-0  27956-4 0  9990,2 52559  53.2181 317.4543 0001322  99.3512 260.7630 15.08836136 71814,6917.892,95.438,540.672,538.843,0.0
52559.0,STARLINK-3953,PAYLOAD,2023-08-26 11:52:05,15.08838444,0.0001232,53.2177,317.1562,97.796,262.3173,3.9044e-05,3.34e-06,0.0,0 STARLINK-3953,1 52559U 22051AC  23238.49450671  .00000334  00000-0  39044-4 0  9994,2 52559  53.2177 317.1562 0001232  97.7960 262.3173 15.08838444 71753,6917.885,95.438,540.602,538.898,0.0
52559.0,STARLINK-3953,PAYLOAD,2023-08-27 10:07:28,15.08853811,0.0001283,53.2184,312.9935,103.6115,256.502,-0.0001171,-2.152e-05,0.0,0 STARLINK-3953,1 52559U 22051AC  23239.42186175 -.00002152  00000-0 -11710-3 0  9994,2 52559  53.2184 312.9935 0001283 103.6115 256.5020 15.08853811 71967,6917.838,95.437,540.591,538.816,0.0
52559.0,STARLINK-3953,PAYLOAD,2023-08-27 14:54:01,15.08523175,0.000365,53.218,312.1015,102.2156,257.9245,-0.0027609,-0.00043592,0.0,0 STARLINK-3953,1 52559U 22051AC  23239.62085268 -.00043592  00000-0 -27609-2 0  9993,2 52559  53.2180 312.1015 0003650 102.2156 257.9245 15.08523175 71998,6918.849,95.458,543.239,538.189,0.0
52559.0,STARLINK-3953,PAYLOAD,2023-08-28 09:58:16,15.08835757,0.0001354,53.2169,308.533,93.8863,266.2284,8.5531e-05,1.073e-05,0.0,0 STARLINK-3953,1 52559U 22051AC  23240.41547024  .00001073  00000-0  85531-4 0  9991,2 52559  53.2169 308.5330 0001354  93.8863 266.2284 15.08835757 72116,6917.893,95.438,540.695,538.822,0.0
52559.0,STARLINK-3953,PAYLOAD,2023-08-28 14:44:25,15.08846832,0.0001212,53.2174,307.6425,74.7613,285.3513,-1.4398e-05,-5.17e-06,0.0,0 STARLINK-3953,1 52559U 22051AC  23240.61418402 -.00000517  00000-0 -14398-4 0  9997,2 52559  53.2174 307.6425 0001212  74.7613 285.3513 15.08846832 72147,6917.86,95.437,540.563,538.886,0.0
52559.0,STARLINK-3953,PAYLOAD,2023-08-28 21:05:58,15.08835953,0.0001378,53.2173,306.4523,91.5891,268.5259,6.6578e-05,7.72e-06,0.0,0 STARLINK-3953,1 52559U 22051AC  23240.87915205  .00000772  00000-0  66578-4 0  9996,2 52559  53.2173 306.4523 0001378  91.5891 268.5259 15.08835953 72119,6917.893,95.438,540.711,538.804,0.0
52559.0,STARLINK-3953,PAYLOAD,2023-08-29 09:49:03,15.08841511,0.0001359,53.2171,304.0726,93.7029,266.4119,9.329e-05,1.197e-05,0.0,0 STARLINK-3953,1 52559U 22051AC  23241.40906865  .00001197  00000-0  93290-4 0  9991,2 52559  53.2171 304.0726 0001359  93.7029 266.4119 15.08841511 72199,6917.876,95.437,540.681,538.801,0.0
52559.0,STARLINK-3953,PAYLOAD,2023-08-30 04:53:41,15.08836435,0.0001295,53.217,300.504,90.8116,269.3024,8.1146e-05,1.004e-05,0.0,0 STARLINK-3953,1 52559U 22051AC  23242.20395342  .00001004  00000-0  81146-4 0  9996,2 52559  53.2170 300.5040 0001295  90.8116 269.3024 15.08836435 72389,6917.891,95.438,540.652,538.86,0.0
52559.0,STARLINK-3953,PAYLOAD,2023-08-30 20:47:33,15.08838122,0.0001269,53.2169,297.5306,88.7869,271.3269,3.0777e-05,2.02e-06,0.0,0 STARLINK-3953,1 52559U 22051AC  23242.86635458  .00000202  00000-0  30777-4 0  9996,2 52559  53.2169 297.5306 0001269  88.7869 271.3269 15.08838122 72412,6917.886,95.438,540.629,538.873,0.0
52559.0,STARLINK-3953,PAYLOAD,2023-08-31 04:44:28,15.08836714,0.0001264,53.2174,296.0437,88.0384,272.0753,4.4004e-05,4.12e-06,0.0,0 STARLINK-3953,1 52559U 22051AC  23243.19755613  .00000412  00000-0  44004-4 0  9990,2 52559  53.2174 296.0437 0001264  88.0384 272.0753 15.08836714 72463,6917.89,95.438,540.63,538.881,0.0
52559.0,STARLINK-3953,PAYLOAD,2023-09-01 02:59:52,15.08840098,0.0001269,53.217,291.8799,85.1149,274.9988,9.7238e-05,1.26e-05,0.0,0 STARLINK-3953,1 52559U 22051AC  23244.12491355  .00001260  00000-0  97238-4 0  9993,2 52559  53.2170 291.8799 0001269  85.1149 274.9988 15.08840098 72679,6917.88,95.438,540.623,538.867,0.0
52559.0,STARLINK-3953,PAYLOAD,2023-09-01 09:21:24,15.08842733,0.0001266,53.2169,290.6905,85.2813,274.8324,0.00011458,1.536e-05,0.0,0 STARLINK-3953,1 52559U 22051AC  23244.38987187  .00001536  00000-0  11458-3 0  9999,2 52559  53.2169 290.6905 0001266  85.2813 274.8324 15.08842733 72647,6917.872,95.437,540.613,538.861,0.0
52559.0,STARLINK-3953,PAYLOAD,2023-09-02 09:12:11,15.08846924,0.0001362,53.2193,286.2321,87.2264,272.8884,0.00012756,1.743e-05,0.0,0 STARLINK-3953,1 52559U 22051AC  23245.38346832  .00001743  00000-0  12756-3 0  9998,2 52559  53.2193 286.2321 0001362  87.2264 272.8884 15.08846924 72865,6917.859,95.437,540.666,538.782,0.0
52559.0,STARLINK-3953,PAYLOAD,2023-09-02 20:19:53,15.08851194,0.0001017,53.2167,284.1478,90.4031,269.7077,0.00012136,1.645e-05,0.0,0 STARLINK-3953,1 52559U 22051AC  23245.84714359  .00001645  00000-0  12136-3 0  9995,2 52559  53.2167 284.1478 0001017  90.4031 269.7077 15.08851194 72865,6917.846,95.437,540.415,539.008,0.0
52559.0,STARLINK-3953,PAYLOAD,2023-09-03 02:41:26,15.08843348,0.0001665,53.2141,282.9569,99.1556,260.9625,4.7964e-05,4.75e-06,0.0,0 STARLINK-3953,1 52559U 22051AC  23246.11210959  .00000475  00000-0  47964-4 0  9991,2 52559  53.2141 282.9569 0001665  99.1556 260.9625 15.08843348 72977,6917.87,95.437,540.887,538.583,0.0
52559.0,STARLINK-3953,PAYLOAD,2023-09-03 09:02:58,15.0884479,0.000156,53.2167,281.7687,98.5103,261.6066,4.5307e-05,4.33e-06,0.0,0 STARLINK-3953,1 52559U 22051AC  23246.37706850  .00000433  00000-0  45307-4 0  9992,2 52559  53.2167 281.7687 0001560  98.5103 261.6066 15.08844790 72944,6917.866,95.437,540.81,538.652,0.0
52559.0,STARLINK-3953,PAYLOAD,2023-09-04 02:32:14,15.08834038,0.0001638,53.2167,278.4982,96.3891,263.7287,-4.0038e-05,-9.25e-06,0.0,0 STARLINK-3953,1 52559U 22051AC  23247.10571826 -.00000925  00000-0 -40038-4 0  9991,2 52559  53.2167 278.4982 0001638  96.3891 263.7287 15.08834038 73124,6917.899,95.438,540.897,538.63,0.0
52559.0,STARLINK-3953,PAYLOAD,2023-09-04 08:53:46,15.08831217,0.0001574,53.2159,277.3082,97.5437,262.5734,-4.7232e-05,-1.039e-05,0.0,0 STARLINK-3953,1 52559U 22051AC  23247.37068092 -.00001039  00000-0 -47232-4 0  9996,2 52559  53.2159 277.3082 0001574  97.5437 262.5734 15.08831217 73098,6917.907,95.438,540.861,538.683,0.0
52559.0,STARLINK-3953,PAYLOAD,2023-09-05 02:23:01,15.08834672,0.0001516,53.2164,274.0371,97.5868,262.5296,3.1555e-05,2.14e-06,0.0,0 STARLINK-3953,1 52559U 22051AC  23248.09931924  .00000214  00000-0  31555-4 0  9992,2 52559  53.2164 274.0371 0001516  97.5868 262.5296 15.08834672 73207,6917.897,95.438,540.81,538.713,0.0
52559.0,STARLINK-3953,PAYLOAD,2023-09-05 18:16:52,15.08835918,0.0001484,53.2165,271.0642,97.7532,262.3629,9.2574e-05,1.185e-05,0.0,0 STARLINK-3953,1 52559U 22051AC  23248.76171879  .00001185  00000-0  92574-4 0  9997,2 52559  53.2165 271.0642 0001484  97.7532 262.3629 15.08835918 73370,6917.893,95.438,540.784,538.731,0.0
52559.0,STARLINK-3953,PAYLOAD,2023-09-06 11:46:07,15.08836712,0.0001462,53.2162,267.7932,97.7882,262.3276,0.00014186,1.97e-05,0.0,0 STARLINK-3953,1 52559U 22051AC  23249.49036034  .00001970  00000-0  14186-3 0  9995,2 52559  53.2162 267.7932 0001462  97.7882 262.3276 15.08836712 73411,6917.89,95.438,540.767,538.744,0.0
52559.0,STARLINK-3953,PAYLOAD,2023-09-06 18:07:39,15.08835026,0.0001455,53.216,266.6037,97.9799,262.1359,9.1217e-05,1.164e-05,0.0,0 STARLINK-3953,1 52559U 22051AC  23249.75532356  .00001164  00000-0  91217-4 0  9998,2 52559  53.2160 266.6037 0001455  97.9799 262.1359 15.08835026 73455,6917.896,95.438,540.767,538.754,0.0
52559.0,STARLINK-3953,PAYLOAD,2023-09-07 02:04:35,15.08837364,0.0001465,53.216,265.1166,97.3958,262.7201,2.9266e-05,1.78e-06,0.0,0 STARLINK-3953,1 52559U 22051AC  23250.08652488  .00000178  00000-0  29266-4 0  9994,2 52559  53.2160 265.1166 0001465  97.3958 262.7201 15.08837364 73576,6917.888,95.438,540.767,538.74,0.0
52559.0,STARLINK-3953,PAYLOAD,2023-09-07 10:01:31,15.08838969,0.0001481,53.2163,263.6299,97.2816,262.8344,3.7766e-05,3.13e-06,0.0,0 STARLINK-3953,1 52559U 22051AC  23250.41772400  .00000313  00000-0  37766-4 0  9993,2 52559  53.2163 263.6299 0001481  97.2816 262.8344 15.08838969 73558,6917.884,95.438,540.773,538.724,0.0
52559.0,STARLINK-3953,PAYLOAD,2023-09-08 06:41:31,15.08841838,0.0001453,53.2164,259.7639,96.4468,263.6689,3.5612e-05,2.79e-06,0.0,0 STARLINK-3953,1 52559U 22051AC  23251.27884255  .00000279  00000-0  35612-4 0  9999,2 52559  53.2164 259.7639 0001453  96.4468 263.6689 15.08841838 73758,6917.875,95.437,540.745,538.735,0.0
52559.0,STARLINK-3953,PAYLOAD,2023-09-08 17:49:13,15.08841025,0.0001457,53.2163,257.6818,91.1981,268.9179,6.493e-05,7.46e-06,0.0,0 STARLINK-3953,1 52559U 22051AC  23251.74252212  .00000746  00000-0  64930-4 0  9997,2 52559  53.2163 257.6818 0001457  91.1981 268.9179 15.08841025 73759,6917.877,95.437,540.75,538.734,0.0
52559.0,STARLINK-3953,PAYLOAD,2023-09-09 09:43:04,15.08845553,0.0001412,53.2161,254.7076,92.9911,267.1242,9.6779e-05,1.253e-05,0.0,0 STARLINK-3953,1 52559U 22051AC  23252.40491769  .00001253  00000-0  96779-4 0  9993,2 52559  53.2161 254.7076 0001412  92.9911 267.1242 15.08845553 73925,6917.863,95.437,540.705,538.752,0.0
52559.0,STARLINK-3953,PAYLOAD,2023-09-09 17:40:01,15.08838827,0.0001402,53.2159,253.2198,94.817,265.2982,3.5847e-05,2.83e-06,0.0,0 STARLINK-3953,1 52559U 22051AC  23252.73612355  .00000283  00000-0  35847-4 0  9996,2 52559  53.2159 253.2198 0001402  94.8170 265.2982 15.08838827 73979,6917.884,95.438,540.719,538.779,0.0
